{
    "links": {
        "self": "http://www.neowsapp.com/rest/v1/neo/3760539?api_key=iIulBulltgU6a56xZRHN4H3l9WmuAYTsLGpBGhQ2"
    },
    "id": "3760539",
    "neo_reference_id": "3760539",
    "name": "(2016 TA18)",
    "designation": "2016 TA18",
    "nasa_jpl_url": "http://ssd.jpl.nasa.gov/sbdb.cgi?sstr=3760539",
    "absolute_magnitude_h": 23.8,
    "estimated_diameter": {
        "kilometers": {
            "estimated_diameter_min": 0.046190746,
            "estimated_diameter_max": 0.1032856481
        },
        "meters": {
            "estimated_diameter_min": 46.1907460282,
            "estimated_diameter_max": 103.2856480504
        },
        "miles": {
            "estimated_diameter_min": 0.0287015901,
            "estimated_diameter_max": 0.0641787064
        },
        "feet": {
            "estimated_diameter_min": 151.544447199,
            "estimated_diameter_max": 338.8636855496
        }
    },
    "is_potentially_hazardous_asteroid": false,
    "close_approach_data": [
        {
            "close_approach_date": "2016-10-14",
            "close_approach_date_full": "2016-Oct-14 01:46",
            "epoch_date_close_approach": 1476409560000,
            "relative_velocity": {
                "kilometers_per_second": "5.3173831954",
                "kilometers_per_hour": "19142.5795034007",
                "miles_per_hour": "11894.4544697658"
            },
            "miss_distance": {
                "astronomical": "0.1532407577",
                "lunar": "59.6106547453",
                "kilometers": "22924490.949106099",
                "miles": "14244618.1440542062"
            },
            "orbiting_body": "Earth"
        },
        {
            "close_approach_date": "2152-11-07",
            "close_approach_date_full": "2152-Nov-07 19:50",
            "epoch_date_close_approach": 5770295400000,
            "relative_velocity": {
                "kilometers_per_second": "9.3743102576",
                "kilometers_per_hour": "33747.5169274652",
                "miles_per_hour": "20969.3946152908"
            },
            "miss_distance": {
                "astronomical": "0.0969133653",
                "lunar": "37.6992991017",
                "kilometers": "14498033.023411911",
                "miles": "9008659.9836339318"
            },
            "orbiting_body": "Mars"
        }
    ],
    "orbital_data": {
        "orbit_id": "6",
        "orbit_determination_date": "2019-12-04 07:15:43",
        "first_observation_date": "2016-10-07",
        "last_observation_date": "2016-10-26",
        "data_arc_in_days": 19,
        "observations_used": 43,
        "orbit_uncertainty": "7",
        "minimum_orbit_intersection": ".161859",
        "jupiter_tisserand_invariant": "3.231",
        "epoch_osculation": "2459000.5",
        "eccentricity": ".5445483182732758",
        "semi_major_axis": "2.514645163596684",
        "inclination": "4.97724770722883",
        "ascending_node_longitude": "340.7627615102797",
        "orbital_period": "1456.510077541207",
        "perihelion_distance": "1.145299368706083",
        "perihelion_argument": "45.7503929500003",
        "aphelion_distance": "3.883990958487284",
        "perihelion_time": "2459136.060920835128",
        "mean_anomaly": "326.4939280179713",
        "mean_motion": ".2471661580314848",
        "equinox": "J2000",
        "orbit_class": {
            "orbit_class_type": "AMO",
            "orbit_class_description": "Near-Earth asteroid orbits similar to that of 1221 Amor",
            "orbit_class_range": "1.017 AU < q (perihelion) < 1.3 AU"
        }
    },
    "is_sentry_object": false
}